     2.100          NAVIGATION                              RINEX VERSION / TYPE
fic2rin                                 12/20/2009 01:47:10 PGM / RUN BY / DATE
                                                            END OF HEADER
11 09 12 19 10  0  0.0 -.350722111762D-04 -.204636307899D-11  .000000000000D+00
     .440000000000D+02  .340625000000D+01  .650312802424D-08 -.167570795055D+01
     .197440385818D-06  .103751522256D-01  .426918268204D-05  .515370552444D+04
     .554400000000D+06  .158324837685D-06  .202445096093D+01 -.800937414169D-07
     .888352549049D+00  .256156250000D+03  .775377843108D+00 -.888572726906D-08
     .607168148133D-10  .100000000000D+01  .156200000000D+04  .000000000000D+00
     .240000000000D+01  .000000000000D+00 -.116415321827D-07  .440000000000D+02
     .547206000000D+06  .400000000000D+01
12 09 12 19 10  0  0.0 -.174543354660D-03  .511590769747D-11  .000000000000D+00
     .350000000000D+02 -.110781250000D+03  .413838666613D-08 -.145053501462D+01
    -.572577118874D-05  .323164870497D-02  .941567122936D-05  .515379643631D+04
     .554400000000D+06 -.223517417908D-07  .162862482893D+00 -.726431608200D-07
     .969476914171D+00  .200656250000D+03 -.562788829019D+00 -.786032741419D-08
     .114290474943D-10  .100000000000D+01  .156200000000D+04  .000000000000D+00
     .240000000000D+01  .000000000000D+00 -.121071934700D-07  .350000000000D+02
     .547206000000D+06  .400000000000D+01
13 09 12 19 10  0  0.0  .306590460241D-03  .000000000000D+00  .000000000000D+00
     .300000000000D+02  .101375000000D+03  .365979530231D-08  .854736556808D+00
     .522285699844D-05  .397056527436D-02  .543892383575D-05  .515361649895D+04
     .554400000000D+06 -.633299350739D-07 -.187542234781D+01 -.186264514923D-07
     .993813077218D+00  .290625000000D+03  .164632470403D+01 -.783282626865D-08
     .251796202608D-09  .100000000000D+01  .156200000000D+04  .000000000000D+00
     .240000000000D+01  .000000000000D+00 -.111758708954D-07  .300000000000D+02
     .547206000000D+06  .400000000000D+01
14 09 12 19 10  0  0.0 -.103493221104D-04  .466116034659D-11  .000000000000D+00
     .108000000000D+03  .112500000000D+03  .383230248792D-08  .733274509267D+00
     .573508441448D-05  .506801588926D-02  .627338886261D-05  .515369025993D+04
     .554400000000D+06 -.670552253723D-07 -.189622477225D+01  .111758708954D-07
     .987193922967D+00  .270218750000D+03 -.209981562886D+01 -.791532970525D-08
     .231795369493D-09  .100000000000D+01  .156200000000D+04  .000000000000D+00
     .240000000000D+01  .000000000000D+00 -.884756445885D-08  .108000000000D+03
     .547206000000D+06  .400000000000D+01
16 09 12 19 10  0  0.0 -.210655853152D-04 -.420641299570D-11  .000000000000D+00
     .230000000000D+02 -.112562500000D+03  .414660129402D-08  .243421078491D+01
    -.566057860851D-05  .542882352602D-02  .888854265213D-05  .515368434906D+04
     .554400000000D+06 -.167638063431D-07  .180081275919D+00  .109896063805D-06
     .970794792700D+00  .213750000000D+03 -.272813367886D+00 -.775639451354D-08
    -.264296723305D-10  .100000000000D+01  .156200000000D+04  .000000000000D+00
     .240000000000D+01  .000000000000D+00 -.977888703346D-08  .230000000000D+02
     .547206000000D+06  .400000000000D+01
17 09 12 19 10  0  0.0  .113275833428D-03  .363797880709D-11  .000000000000D+00
     .470000000000D+02  .135937500000D+02  .466769442821D-08  .123649938375D+01
     .733882188797D-06  .489948759787D-02  .870786607265D-05  .515376383018D+04
     .554400000000D+06 -.372529029846D-07  .122261210284D+01  .726431608200D-07
     .959651896371D+00  .212093750000D+03 -.263965768372D+01 -.801711965950D-08
     .385016037463D-09  .100000000000D+01  .156200000000D+04  .000000000000D+00
     .240000000000D+01  .000000000000D+00 -.102445483208D-07  .470000000000D+02
     .547206000000D+06  .400000000000D+01
18 09 12 19 10  0  0.0  .357446260750D-04  .261479726760D-11  .000000000000D+00
     .600000000000D+02  .336562500000D+02  .462876423518D-08  .262646987954D+01
     .171363353729D-05  .109015151393D-01  .105500221252D-04  .515365662575D+04
     .554400000000D+06 -.372529029846D-08 -.296090522780D+01 -.206753611565D-06
     .939869754879D+00  .162125000000D+03 -.235611896851D+01 -.779639617977D-08
    -.401802450971D-09  .100000000000D+01  .156200000000D+04  .000000000000D+00
     .240000000000D+01  .000000000000D+00 -.107102096081D-07  .600000000000D+02
     .547206000000D+06  .400000000000D+01
19 09 12 19 10  0  0.0 -.474974513054D-05 -.204636307899D-11  .000000000000D+00
     .920000000000D+02  .534375000000D+01  .471983945740D-08  .577505771731D+00
     .223517417908D-06  .596826209221D-02  .804103910923D-05  .515367949867D+04
     .554400000000D+06  .122934579849D-06  .127808536685D+01 -.279396772385D-07
     .957277055140D+00  .219437500000D+03 -.188505551121D+00 -.801783397497D-08
     .386801826134D-09  .100000000000D+01  .156200000000D+04  .000000000000D+00
     .340000000000D+01  .000000000000D+00 -.144354999065D-07  .920000000000D+02
     .547206000000D+06  .400000000000D+01
21 09 12 19 10  0  0.0 -.284863635898D-04 -.238742359215D-11  .000000000000D+00
     .990000000000D+02 -.825000000000D+01  .541129683080D-08 -.248541292354D+01
    -.610947608948D-06  .157435830915D-01  .543333590031D-05  .515371772194D+04
     .554400000000D+06  .670552253723D-07  .226492589562D+01 -.240281224251D-06
     .932846697724D+00  .259281250000D+03 -.254041123803D+01 -.820319883902D-08
    -.925038531568D-10  .100000000000D+01  .156200000000D+04  .000000000000D+00
     .240000000000D+01  .000000000000D+00 -.121071934700D-07  .990000000000D+02
     .547206000000D+06  .400000000000D+01
22 09 12 19 10  0  0.0  .183679163456D-03 -.909494701773D-12  .000000000000D+00
     .320000000000D+02  .330312500000D+02  .484413034890D-08  .159837259884D+01
     .169873237610D-05  .518852577079D-02  .103339552879D-04  .515366445541D+04
     .554400000000D+06 -.987201929092D-07 -.295565444909D+01 -.139698386192D-06
     .937545308251D+00  .167187500000D+03 -.187633735771D+01 -.807319342377D-08
    -.414302971667D-09  .100000000000D+01  .156200000000D+04  .000000000000D+00
     .240000000000D+01  .000000000000D+00 -.176951289177D-07  .320000000000D+02
     .547206000000D+06  .400000000000D+01
24 09 12 19 10  0  0.0  .246312469244D-03  .329691829393D-11  .000000000000D+00
     .200000000000D+01 -.512500000000D+01  .501878048092D-08  .246041708392D+01
    -.193715095520D-06  .608612317592D-02  .587105751038D-05  .515366299438D+04
     .554400000000D+06 -.130385160446D-07  .230054634018D+01  .428408384323D-07
     .949490151402D+00  .262593750000D+03 -.562619698134D+00 -.806533595362D-08
    -.336085427879D-09  .100000000000D+01  .156200000000D+04  .000000000000D+00
     .240000000000D+01  .630000000000D+02 -.139698386192D-08  .200000000000D+01
     .547206000000D+06  .400000000000D+01
25 09 12 19 10  0  0.0  .577382743359D-04  .109139364213D-10  .000000000000D+00
     .420000000000D+02 -.220937500000D+02  .440946938638D-08  .301925592879D+01
    -.120513141155D-05  .114697277313D-01  .100769102573D-05  .515369732857D+04
     .554400000000D+06  .203028321266D-06 -.984164187440D+00  .147148966789D-06
     .971753931532D+00  .363906250000D+03 -.121864636307D+01 -.811105214359D-08
    -.857178562071D-11  .100000000000D+01  .156200000000D+04  .000000000000D+00
     .240000000000D+01  .630000000000D+02 -.745058059692D-08  .420000000000D+02
     .547206000000D+06  .400000000000D+01
27 09 12 19 10  0  0.0  .109678134322D-03  .329691829393D-11  .000000000000D+00
     .290000000000D+02 -.308125000000D+02  .459376277723D-08  .814180928852D+00
    -.195391476154D-05  .217035432579D-01  .220164656639D-05  .515369444084D+04
     .554400000000D+06 -.292435288429D-06 -.947093834534D+00 -.260770320892D-06
     .976647458338D+00  .353593750000D+03 -.150129047900D+01 -.866178936972D-08
    -.112504686272D-09  .100000000000D+01  .156200000000D+04  .000000000000D+00
     .240000000000D+01  .000000000000D+00 -.419095158577D-08  .290000000000D+02
     .547206000000D+06  .400000000000D+01
28 09 12 19 10  0  0.0 -.245789997280D-04  .341060513165D-12  .000000000000D+00
     .112000000000D+03 -.107906250000D+03  .407766985132D-08  .184040517117D+01
    -.577419996262D-05  .155205504270D-01  .944361090660D-05  .515366846657D+04
     .554400000000D+06 -.184401869774D-06  .188006052372D+00 -.368803739548D-06
     .969016513370D+00  .205968750000D+03 -.200194119844D+01 -.774139388870D-08
     .478591363823D-10  .100000000000D+01  .156200000000D+04  .000000000000D+00
     .340000000000D+01  .000000000000D+00 -.107102096081D-07  .112000000000D+03
     .547206000000D+06  .400000000000D+01
29 09 12 19 10  0  0.0  .833403319120D-04  .295585778076D-11  .000000000000D+00
     .186000000000D+03  .475000000000D+01  .453733185523D-08 -.233072319488D+01
     .204890966415D-06  .287406123243D-02  .881217420101D-05  .515354957581D+04
     .554400000000D+06  .335276126862D-07  .123082471135D+01  .707805156708D-07
     .959932936100D+00  .206875000000D+03 -.127541703060D+01 -.781746848608D-08
     .468590947265D-09  .100000000000D+01  .156200000000D+04  .000000000000D+00
     .340000000000D+01  .000000000000D+00 -.884756445885D-08  .186000000000D+03
     .547206000000D+06  .400000000000D+01
31 09 12 19 10  0  0.0 -.581829808652D-04  .113686837722D-11  .000000000000D+00
     .880000000000D+02 -.311250000000D+02  .452518849226D-08 -.162621349229D+01
    -.142306089401D-05  .745674397331D-02  .169128179550D-05  .515357851791D+04
     .554400000000D+06 -.184401869774D-06 -.891200233198D+00  .139698386192D-06
     .975124908792D+00  .357656250000D+03 -.113424232872D+01 -.831070331701D-08
    -.207151485834D-10  .100000000000D+01  .156200000000D+04  .000000000000D+00
     .240000000000D+01  .000000000000D+00 -.130385160446D-07  .880000000000D+02
     .547206000000D+06  .400000000000D+01
